[{"OBJECT_NAME":"STARLINK-4427","OBJECT_ID":"2022-084X","EPOCH":"2026-03-09T21:22:01.322976","MEAN_MOTION":15.01261199,"ECCENTRICITY":0.00019367,"INCLINATION":97.603,"RA_OF_ASC_NODE":130.3993,"ARG_OF_PERICENTER":89.8126,"MEAN_ANOMALY":270.332,"EPHEMERIS_TYPE":0,"CLASSIFICATION_TYPE":"U","NORAD_CAT_ID":53210,"ELEMENT_SET_NO":999,"REV_AT_EPOCH":19988,"BSTAR":4.888818e-6,"MEAN_MOTION_DOT":5.0e-8,"MEAN_MOTION_DDOT":0},{"OBJECT_NAME":"LEMUR-2-MYNAMEISJEFF","OBJECT_ID":"2025-009DH","EPOCH":"2026-03-09T16:38:25.798560","MEAN_MOTION":15.02075007,"ECCENTRICITY":0.0004441,"INCLINATION":97.7341,"RA_OF_ASC_NODE":151.959,"ARG_OF_PERICENTER":147.2142,"MEAN_ANOMALY":212.9359,"EPHEMERIS_TYPE":0,"CLASSIFICATION_TYPE":"U","NORAD_CAT_ID":62712,"ELEMENT_SET_NO":999,"REV_AT_EPOCH":6268,"BSTAR":0.00083427599,"MEAN_MOTION_DOT":0.00010906,"MEAN_MOTION_DDOT":0}]
